{"type": "FeatureCollection", "features": [{"type": "Feature", "properties": {"norad_id": 26766, "name": "INTELSAT 10 (IS-10)", "group": "intelsat", "lat": -8.38912173351667, "lon": -41.6234198215043, "alt_km": 36101.31791471034, "timestamp": "2025-12-01T03:58:49.229062+00:00", "meta": {"OBJECT_NAME": "INTELSAT 10 (IS-10)", "OBJECT_ID": "2001-019A", "EPOCH": "2025-11-30T11:19:42.554784", "MEAN_MOTION": 0.99077408, "ECCENTRICITY": 0.0007464, "INCLINATION": 8.5982, "RA_OF_ASC_NODE": 61.2766, "ARG_OF_PERICENTER": 216.4434, "MEAN_ANOMALY": 153.2802, "EPHEMERIS_TYPE": 0, "CLASSIFICATION_TYPE": "U", "NORAD_CAT_ID": 26766, "ELEMENT_SET_NO": 999, "REV_AT_EPOCH": 4361, "BSTAR": 0, "MEAN_MOTION_DOT": -6.6e-07, "MEAN_MOTION_DDOT": 0, "GROUP": "intelsat"}, "tle": {"line1": "1 26766U 01019A   25334.47202031 -.00000066  00000+0  00000+0 0  9995", "line2": "2 26766   8.5982  61.2766 0007464 216.4434 153.2802  0.99077408 43613"}}, "geometry": {"type": "Point", "coordinates": [-41.6234198215043, -8.38912173351667]}}, {"type": "Feature", "properties": {"norad_id": 26900, "name": "INTELSAT 902 (IS-902)", "group": "intelsat", "lat": 0.5621894672505281, "lon": 79.7334926571773, "alt_km": 35805.753101870985, "timestamp": "2025-12-01T03:58:49.229126+00:00", "meta": {"OBJECT_NAME": "INTELSAT 902 (IS-902)", "OBJECT_ID": "2001-039A", "EPOCH": "2025-11-24T17:12:13.636800", "MEAN_MOTION": 1.00269675, "ECCENTRICITY": 0.00045123, "INCLINATION": 5.6008, "RA_OF_ASC_NODE": 74.2814, "ARG_OF_PERICENTER": 170.1727, "MEAN_ANOMALY": 27.4183, "EPHEMERIS_TYPE": 0, "CLASSIFICATION_TYPE": "U", "NORAD_CAT_ID": 26900, "ELEMENT_SET_NO": 999, "REV_AT_EPOCH": 8864, "BSTAR": 0, "MEAN_MOTION_DOT": -2.64e-06, "MEAN_MOTION_DDOT": 0, "GROUP": "intelsat"}, "tle": {"line1": "1 26900U 01039A   25328.71682450 -.00000264  00000+0  00000+0 0  9994", "line2": "2 26900   5.6008  74.2814 0004512 170.1727  27.4183  1.00269675 88648"}}, "geometry": {"type": "Point", "coordinates": [79.7334926571773, 0.5621894672505281]}}, {"type": "Feature", "properties": {"norad_id": 27380, "name": "INTELSAT 904 (IS-904)", "group": "intelsat", "lat": 2.9184689714361025, "lon": 98.33917801673681, "alt_km": 35791.871629098816, "timestamp": "2025-12-01T03:58:49.229156+00:00", "meta": {"OBJECT_NAME": "INTELSAT 904 (IS-904)", "OBJECT_ID": "2002-007A", "EPOCH": "2025-11-30T15:24:20.552256", "MEAN_MOTION": 1.00270158, "ECCENTRICITY": 0.0001381, "INCLINATION": 6.4221, "RA_OF_ASC_NODE": 71.5699, "ARG_OF_PERICENTER": 192.68, "MEAN_ANOMALY": 5.1302, "EPHEMERIS_TYPE": 0, "CLASSIFICATION_TYPE": "U", "NORAD_CAT_ID": 27380, "ELEMENT_SET_NO": 999, "REV_AT_EPOCH": 4977, "BSTAR": 0, "MEAN_MOTION_DOT": -2.04e-06, "MEAN_MOTION_DDOT": 0, "GROUP": "intelsat"}, "tle": {"line1": "1 27380U 02007A   25334.64190454 -.00000204  00000+0  00000+0 0  9994", "line2": "2 27380   6.4221  71.5699 0001381 192.6800   5.1302  1.00270158 49775"}}, "geometry": {"type": "Point", "coordinates": [98.33917801673681, 2.9184689714361025]}}, {"type": "Feature", "properties": {"norad_id": 27426, "name": "DIRECTV 5 (TEMPO 1)", "group": "intelsat", "lat": -3.6811642706265375, "lon": 19.958959644244754, "alt_km": 35793.676066725035, "timestamp": "2025-12-01T03:58:49.229171+00:00", "meta": {"OBJECT_NAME": "DIRECTV 5 (TEMPO 1)", "OBJECT_ID": "2002-023A", "EPOCH": "2025-11-30T09:53:43.291104", "MEAN_MOTION": 1.00271178, "ECCENTRICITY": 0.00035367, "INCLINATION": 4.3678, "RA_OF_ASC_NODE": 77.7982, "ARG_OF_PERICENTER": 184.5246, "MEAN_ANOMALY": 205.5344, "EPHEMERIS_TYPE": 0, "CLASSIFICATION_TYPE": "U", "NORAD_CAT_ID": 27426, "ELEMENT_SET_NO": 999, "REV_AT_EPOCH": 8613, "BSTAR": 0, "MEAN_MOTION_DOT": -3.5e-07, "MEAN_MOTION_DDOT": 0, "GROUP": "intelsat"}, "tle": {"line1": "1 27426U 02023A   25334.41230661 -.00000035  00000+0  00000+0 0  9995", "line2": "2 27426   4.3678  77.7982 0003536 184.5246 205.5344  1.00271178 86136"}}, "geometry": {"type": "Point", "coordinates": [19.958959644244754, -3.6811642706265375]}}, {"type": "Feature", "properties": {"norad_id": 27438, "name": "INTELSAT 905 (IS-905)", "group": "intelsat", "lat": -6.135096403279558, "lon": -7.129919846455451, "alt_km": 35788.19723605657, "timestamp": "2025-12-01T03:58:49.229185+00:00", "meta": {"OBJECT_NAME": "INTELSAT 905 (IS-905)", "OBJECT_ID": "2002-027A", "EPOCH": "2025-11-30T11:28:41.694240", "MEAN_MOTION": 1.00272349, "ECCENTRICITY": 0.0002933, "INCLINATION": 6.2522, "RA_OF_ASC_NODE": 72.1957, "ARG_OF_PERICENTER": 183.5724, "MEAN_ANOMALY": 208.8172, "EPHEMERIS_TYPE": 0, "CLASSIFICATION_TYPE": "U", "NORAD_CAT_ID": 27438, "ELEMENT_SET_NO": 999, "REV_AT_EPOCH": 4937, "BSTAR": 0, "MEAN_MOTION_DOT": 1.15e-06, "MEAN_MOTION_DDOT": 0, "GROUP": "intelsat"}, "tle": {"line1": "1 27438U 02027A   25334.47826035  .00000115  00000+0  00000+0 0  9992", "line2": "2 27438   6.2522  72.1957 0002933 183.5724 208.8172  1.00272349 49370"}}, "geometry": {"type": "Point", "coordinates": [-7.129919846455451, -6.135096403279558]}}, {"type": "Feature", "properties": {"norad_id": 27445, "name": "GALAXY 3C (G-3C)", "group": "intelsat", "lat": -2.284002556363967, "lon": 35.15026364999652, "alt_km": 35790.822696820964, "timestamp": "2025-12-01T03:58:49.229197+00:00", "meta": {"OBJECT_NAME": "GALAXY 3C (G-3C)", "OBJECT_ID": "2002-030A", "EPOCH": "2025-11-30T13:23:28.748832", "MEAN_MOTION": 1.00270698, "ECCENTRICITY": 0.0001341, "INCLINATION": 3.2312, "RA_OF_ASC_NODE": 80.6321, "ARG_OF_PERICENTER": 91.1507, "MEAN_ANOMALY": 3.9273, "EPHEMERIS_TYPE": 0, "CLASSIFICATION_TYPE": "U", "NORAD_CAT_ID": 27445, "ELEMENT_SET_NO": 999, "REV_AT_EPOCH": 4450, "BSTAR": 0, "MEAN_MOTION_DOT": -1.3e-06, "MEAN_MOTION_DDOT": 0, "GROUP": "intelsat"}, "tle": {"line1": "1 27445U 02030A   25334.55797163 -.00000130  00000+0  00000+0 0  9990", "line2": "2 27445   3.2312  80.6321 0001341  91.1507   3.9273  1.00270698 44507"}}, "geometry": {"type": "Point", "coordinates": [35.15026364999652, -2.284002556363967]}}, {"type": "Feature", "properties": {"norad_id": 27513, "name": "INTELSAT 906 (IS-906)", "group": "intelsat", "lat": 4.630840487518823, "lon": -165.8652687206414, "alt_km": 35776.965567830324, "timestamp": "2025-12-01T03:58:49.229210+00:00", "meta": {"OBJECT_NAME": "INTELSAT 906 (IS-906)", "OBJECT_ID": "2002-041A", "EPOCH": "2025-11-30T19:17:09.233376", "MEAN_MOTION": 1.00272656, "ECCENTRICITY": 0.0006094, "INCLINATION": 5.2989, "RA_OF_ASC_NODE": 75.3725, "ARG_OF_PERICENTER": 190.1762, "MEAN_ANOMALY": 157.7963, "EPHEMERIS_TYPE": 0, "CLASSIFICATION_TYPE": "U", "NORAD_CAT_ID": 27513, "ELEMENT_SET_NO": 999, "REV_AT_EPOCH": 8503, "BSTAR": 0, "MEAN_MOTION_DOT": 3.4e-07, "MEAN_MOTION_DDOT": 0, "GROUP": "intelsat"}, "tle": {"line1": "1 27513U 02041A   25334.80357909  .00000034  00000+0  00000+0 0  9998", "line2": "2 27513   5.2989  75.3725 0006094 190.1762 157.7963  1.00272656 85030"}}, "geometry": {"type": "Point", "coordinates": [-165.8652687206414, 4.630840487518823]}}, {"type": "Feature", "properties": {"norad_id": 27954, "name": "GALAXY 13 (HORIZONS-1)", "group": "intelsat", "lat": -0.8561003029258466, "lon": -20.02320368912982, "alt_km": 35787.31446702806, "timestamp": "2025-12-01T03:58:49.229226+00:00", "meta": {"OBJECT_NAME": "GALAXY 13 (HORIZONS-1)", "OBJECT_ID": "2003-044A", "EPOCH": "2025-11-30T16:33:13.480704", "MEAN_MOTION": 1.00271307, "ECCENTRICITY": 0.0002104, "INCLINATION": 0.9044, "RA_OF_ASC_NODE": 86.6149, "ARG_OF_PERICENTER": 156.6081, "MEAN_ANOMALY": 284.8928, "EPHEMERIS_TYPE": 0, "CLASSIFICATION_TYPE": "U", "NORAD_CAT_ID": 27954, "ELEMENT_SET_NO": 999, "REV_AT_EPOCH": 4458, "BSTAR": 0, "MEAN_MOTION_DOT": 1.55e-06, "MEAN_MOTION_DDOT": 0, "GROUP": "intelsat"}, "tle": {"line1": "1 27954U 03044A   25334.68973936  .00000155  00000+0  00000+0 0  9995", "line2": "2 27954   0.9044  86.6149 0002104 156.6081 284.8928  1.00271307 44587"}}, "geometry": {"type": "Point", "coordinates": [-20.02320368912982, -0.8561003029258466]}}, {"type": "Feature", "properties": {"norad_id": 28358, "name": "INTELSAT 10-02", "group": "intelsat", "lat": 0.018516027747049697, "lon": 128.9649312249589, "alt_km": 35789.872950967394, "timestamp": "2025-12-01T03:58:49.229241+00:00", "meta": {"OBJECT_NAME": "INTELSAT 10-02", "OBJECT_ID": "2004-022A", "EPOCH": "2025-11-30T17:15:46.904832", "MEAN_MOTION": 1.00270321, "ECCENTRICITY": 0.0001016, "INCLINATION": 0.0371, "RA_OF_ASC_NODE": 89.0661, "ARG_OF_PERICENTER": 182.4295, "MEAN_ANOMALY": 56.309, "EPHEMERIS_TYPE": 0, "CLASSIFICATION_TYPE": "U", "NORAD_CAT_ID": 28358, "ELEMENT_SET_NO": 999, "REV_AT_EPOCH": 7856, "BSTAR": 0, "MEAN_MOTION_DOT": 1.1e-07, "MEAN_MOTION_DDOT": 0, "GROUP": "intelsat"}, "tle": {"line1": "1 28358U 04022A   25334.71929288  .00000011  00000+0  00000+0 0  9997", "line2": "2 28358   0.0371  89.0661 0001016 182.4295  56.3090  1.00270321 78563"}}, "geometry": {"type": "Point", "coordinates": [128.9649312249589, 0.018516027747049697]}}, {"type": "Feature", "properties": {"norad_id": 28626, "name": "XM-3 (RHYTHM)", "group": "intelsat", "lat": -0.0918790321746873, "lon": -60.83590074394755, "alt_km": 36157.43584779908, "timestamp": "2025-12-01T03:58:49.229257+00:00", "meta": {"OBJECT_NAME": "XM-3 (RHYTHM)", "OBJECT_ID": "2005-008A", "EPOCH": "2025-11-30T18:04:57.196128", "MEAN_MOTION": 0.98955115, "ECCENTRICITY": 7.98e-05, "INCLINATION": 0.1405, "RA_OF_ASC_NODE": 80.5104, "ARG_OF_PERICENTER": 275.3308, "MEAN_ANOMALY": 156.4426, "EPHEMERIS_TYPE": 0, "CLASSIFICATION_TYPE": "U", "NORAD_CAT_ID": 28626, "ELEMENT_SET_NO": 999, "REV_AT_EPOCH": 4063, "BSTAR": 0, "MEAN_MOTION_DOT": -1.9e-06, "MEAN_MOTION_DDOT": 0, "GROUP": "intelsat"}, "tle": {"line1": "1 28626U 05008A   25334.75343977 -.00000190  00000+0  00000+0 0  9998", "line2": "2 28626   0.1405  80.5104 0000798 275.3308 156.4426  0.98955115 40630"}}, "geometry": {"type": "Point", "coordinates": [-60.83590074394755, -0.0918790321746873]}}]}